IRIDIUM 136             
1 42962U 17061H   24178.12613913  .00000368  00000+0  12451-3 0  9998
2 42962  86.3973 326.5827 0001871  98.4981 261.6427 14.34219639351481
